
# C60 (GNSS)
1 45344U 20017A   26172.54859609 -.00000143  00000+0  00000+0 0  9991
2 45344   2.8738  47.4324 0002144  33.8499 106.0376  1.00271742 23306

# C61 (GNSS)
1 45807U 20040A   26172.05961119 -.00000357  00000+0  00000+0 0  9994
2 45807   2.4578  67.5071 0002606 323.9742   9.6886  1.00277648 22109

# C62 (GNSS)
1 56564U 23066A   26172.58123920 -.00000282  00000+0  00000+0 0  9992
2 56564   0.4811 332.6937 0004518 178.0024 108.3779  1.00272609 11436

# C50 (GNSS)
1 58654U 23207A   26172.05798505 -.00000081  00000+0  00000+0 0  9997
2 58654  55.7561  62.1723 0003138 350.0414   9.9905  1.86229753 16914

# E24 (GNSS)
1 40889U 15045A   26144.30399159 -.00000014  00000+0  00000+0 0  9994
2 40889  54.9357 222.4171 0006405 263.0112  96.9692  1.67409242 66562

# E30 (GNSS)
1 40890U 15045B   26169.04387372  .00000032  00000+0  00000+0 0  9997
2 40890  54.9444 221.5807 0001779 334.3054  25.7732  1.70473811 67050

# E07 (GNSS)
1 41859U 16069A   26170.67835764 -.00000013  00000+0  00000+0 0  9994
2 41859  55.5002 101.0173 0005217 330.9828  28.9678  1.70473648 59449

# E08 (GNSS)
1 41175U 15079B   26170.60543083 -.00000012  00000+0  00000+0 0  9997
2 41175  55.8273 101.1925 0004854 343.5334  16.4302  1.70473634 65232

# E09 (GNSS)
1 41174U 15079A   26169.21194997 -.00000011  00000+0  00000+0 0  9996
2 41174  55.8280 101.2339 0005250 345.1239  14.8344  1.70473656 64794

# E01 (GNSS)
1 41550U 16030B   26169.22686126  .00000031  00000+0  00000+0 0  9994
2 41550  55.0944 221.6643 0005022 247.0655 112.9679  1.70473788 62688

# E02 (GNSS)
1 41549U 16030A   26170.72932823  .00000025  00000+0  00000+0 0  9990
2 41549  55.0946 221.6250 0003049 321.1233  38.9327  1.70473928 62712

# E03 (GNSS)
1 41860U 16069B   26169.94520460 -.00000012  00000+0  00000+0 0  9997
2 41860  55.4975 101.0327 0004607   1.4092 358.5693  1.70473680 59686

# E04 (GNSS)
1 41861U 16069C   26170.89901147 -.00000014  00000+0  00000+0 0  9991
2 41861  55.5002 101.0142 0004814 312.9981  46.9417  1.70474134 59565

# E05 (GNSS)
1 41862U 16069D   26169.87201710 -.00000012  00000+0  00000+0 0  9995
2 41862  55.4996 101.0352 0004721 311.5610  48.3755  1.70473520 59672

# E21 (GNSS)
1 43055U 17079A   26169.77531633  .00000028  00000+0  00000+0 0  9998
2 43055  55.0730 221.4630 0003228 264.0800  95.9660  1.70474593 53016

# E25 (GNSS)
1 43056U 17079B   26168.89331476  .00000034  00000+0  00000+0 0  9991
2 43056  55.0732 221.4873 0004317 276.2784  83.7610  1.70474666 53015

# E27 (GNSS)
1 43057U 17079C   26167.35438370  .00000047  00000+0  00000+0 0  9997
2 43057  55.0717 221.5274 0004985 283.8791  76.1632  1.70474228 52976

# E31 (GNSS)
1 43058U 17079D   26170.50733131  .00000026  00000+0  00000+0 0  9999
2 43058  55.0708 221.4378 0004305 273.7481  86.2815  1.70474769 53056

# E36 (GNSS)
1 43566U 18060C   26171.43843957 -.00000095  00000+0  00000+0 0  9992
2 43566  57.1711 341.6976 0001949 321.5861  38.3948  1.70475997 49246

# E13 (GNSS)
1 43567U 18060D   26170.48626588 -.00000094  00000+0  00000+0 0  9995
2 43567  57.1712 341.7225 0002111 313.2574  46.7188  1.70475760 49211

# E15 (GNSS)
1 43564U 18060A   26168.65155293 -.00000090  00000+0  00000+0 0  9994
2 43564  57.1692 341.7677 0002595 303.5364  56.4325  1.70475954 49172

# E33 (GNSS)
1 43565U 18060B   26170.04438053 -.00000093  00000+0  00000+0 0  9992
2 43565  57.1718 341.7337 0001999 248.0862 111.8861  1.70475706 49242

# E34 (GNSS)
1 49809U 21116A   26171.21352742 -.00000095  00000+0  00000+0 0  9997
2 49809  57.1598 341.5920 0001560 185.4323 351.7235  1.70476002 28237

# E10 (GNSS)
1 49810U 21116B   26168.98509303 -.00000091  00000+0  00000+0 0  9992
2 49810  57.1613 341.6514 0001177 159.9709 202.1698  1.70475877 28225

# R01 (GNSS)
1 36111U 09070A   26172.32191416 -.00000053  00000+0  00000+0 0  9990
2 36111  65.0135  70.8309 0004475 334.3318 214.0062  2.13103564128513

# R02 (GNSS)
1 39155U 13019A   26172.13334175 -.00000048  00000+0  00000+0 0  9993
2 39155  65.4217  73.4720 0023003 233.7016 126.1208  2.13103118102365

# R03 (GNSS)
1 37867U 11064A   26172.42849314 -.00000052  00000+0  00000+0 0  9992
2 37867  65.2724  72.7282 0022615 238.6992 299.7329  2.13103667113850

# R04 (GNSS)
1 44850U 19088A   26169.43716075 -.00000023  00000+0  00000+0 0  9998
2 44850  65.5663  73.6893 0013127 258.8621 101.0278  2.13102753 50745

# R05 (GNSS)
1 43508U 18053A   26170.90026155 -.00000034  00000+0  00000+0 0  9997
2 43508  65.5791  73.8170 0006906 238.7549 121.2143  2.13102048 62339

# R06 (GNSS)
1 36112U 09070B   26170.28409466 -.00000033  00000+0  00000+0 0  9999
2 36112  64.9980  70.7445 0002927 121.9797  70.3947  2.13101026128472

# R07 (GNSS)
1 37868U 11064B   26171.26952727 -.00000039  00000+0  00000+0 0  9992
2 37868  65.2782  72.8466 0019648 240.0065 309.6330  2.13102843113825

# R08 (GNSS)
1 37869U 11064C   26172.27141125 -.00000050  00000+0  00000+0 0  9990
2 37869  65.2855  72.8344 0025398 253.0476 300.3064  2.13101681113855

# R09 (GNSS)
1 40315U 14075A   26172.05477182  .00000072  00000+0  00000+0 0  9999
2 40315  63.6166 190.2381 0022628 212.5574 147.3441  2.13101228 89936

# R10 (GNSS)
1 32395U 07065C   26172.16299959  .00000072  00000+0  00000+0 0  9995
2 32395  64.3269 191.8539 0017273 353.7680  46.7887  2.13100047143817

# R11 (GNSS)
1 46805U 20075A   26171.22947998  .00000062  00000+0  00000+0 0  9990
2 46805  64.5997 192.3739 0009338 239.8081 120.1435  2.13100029 43970

# R12 (GNSS)
1 44299U 19030A   26172.37658476  .00000074  00000+0  00000+0 0  9994
2 44299  64.3690 192.4752 0013451 275.1251 197.9596  2.13102244 55011

# R13 (GNSS)
1 32393U 07065A   26172.51713199  .00000077  00000+0  00000+0 0  9994
2 32393  64.3181 191.7698 0001204 331.4044 208.5317  2.13101233143866

# R14 (GNSS)
1 42939U 17055A   26171.87700781  .00000069  00000+0  00000+0 0  9993
2 42939  64.0794 191.7591 0011202 244.2944 115.6333  2.13101192 68058

# R15 (GNSS)
1 43687U 18086A   26169.11967451  .00000057  00000+0  00000+0 0  9999
2 43687  64.2948 192.5630 0012066 256.5324 103.3830  2.13101950 59308

# R16 (GNSS)
1 54377U 22161A   26171.05664634  .00000061  00000+0  00000+0 0  9994
2 54377  64.7420 192.6165 0012215 224.8634 135.0824  2.13102033 27693

# R17 (GNSS)
1 41330U 16008A   26170.63146802 -.00000059  00000+0  00000+0 0  9995
2 41330  65.0201 312.9226 0011376 198.2261 161.7251  2.13102571 80675

# R18 (GNSS)
1 39620U 14012A   26169.27664962 -.00000055  00000+0  00000+0 0  9993
2 39620  65.2971 313.8989 0010348 324.5914  35.3281  2.13103143 95269

# R19 (GNSS)
1 54031U 22130A   26169.33634979 -.00000058  00000+0  00000+0 0  9991
2 54031  64.2705 314.5280 0012585 178.2040 181.7898  2.13101593 28710

# R20 (GNSS)
1 32276U 07052B   26169.43377550 -.00000056  00000+0  00000+0 0  9992
2 32276  65.5932 316.0195 0007652 331.4172  57.1212  2.13103035145116

# R21 (GNSS)
1 40001U 14032A   26172.26192068 -.00000067  00000+0  00000+0 0  9999
2 40001  65.2298 313.5443 0007492 184.9913 174.9944  2.13105734 93544

# R22 (GNSS)
1 52984U 22075A   26171.86302699 -.00000067  00000+0  00000+0 0  9996
2 52984  64.2965 314.3556 0010286 273.9736  85.9018  2.13102004 30796

# R23 (GNSS)
1 36402U 10007C   26172.37328227 -.00000068  00000+0  00000+0 0  9998
2 36402  65.4181 314.3249 0002093 116.2871 240.7895  2.13101449126816

# R24 (GNSS)
1 45358U 20018A   26172.44771125 -.00000070  00000+0  00000+0 0  9991
2 45358  64.3522 312.2691 0008538 229.7287 130.1903  2.13102330 48750

# R25 (GNSS)
1 32275U 07052A   26169.32339645 -.00000055  00000+0  00000+0 0  9991
2 32275  65.5762 315.8954 0002576 193.7419 166.2393  2.13103991145088
